{
  "type": "FeatureCollection",
  "features": [
    {
      "type": "Feature",
      "properties": {
        "norad_id": 37836,
        "name": "EUTELSAT 16A",
        "group": "eutelsat",
        "lat": -0.08228366328588956,
        "lon": -96.43898122275957,
        "alt_km": 35761.7384933018,
        "timestamp": "2025-12-06T11:28:10.700571+00:00",
        "meta_object_name": "EUTELSAT 16A",
        "meta_object_id": "2011-057A",
        "meta_epoch": "2025-12-05T22:19:59.630592",
        "meta_mean_motion": 1.00269626,
        "meta_eccentricity": 0.00058973,
        "meta_inclination": 0.0581,
        "meta_ra_of_asc_node": 353.2725,
        "meta_arg_of_pericenter": 265.4198,
        "meta_mean_anomaly": 167.2935,
        "meta_ephemeris_type": 0,
        "meta_classification_type": "U",
        "meta_norad_cat_id": 37836,
        "meta_element_set_no": 999,
        "meta_rev_at_epoch": 539,
        "meta_bstar": 0,
        "meta_mean_motion_dot": 1.13e-06,
        "meta_mean_motion_ddot": 0,
        "tle_line1": "1 37836U 11057A   25339.93055128  .00000113  00000+0  00000+0 0  9999",
        "tle_line2": "2 37836   0.0581 353.2725 0005897 265.4198 167.2935  1.00269626  5396"
      },
      "geometry": {
        "type": "Point",
        "coordinates": [
          -96.43898122275957,
          -0.08228366328588956
        ]
      }
    },
    {
      "type": "Feature",
      "properties": {
        "norad_id": 38992,
        "name": "EUTELSAT 21B",
        "group": "eutelsat",
        "lat": -0.08939552676910686,
        "lon": -90.84363283131776,
        "alt_km": 35773.16527141397,
        "timestamp": "2025-12-06T11:28:10.700583+00:00",
        "meta_object_name": "EUTELSAT 21B",
        "meta_object_id": "2012-062B",
        "meta_epoch": "2025-12-05T22:21:36.975744",
        "meta_mean_motion": 1.00269482,
        "meta_eccentricity": 0.00032078,
        "meta_inclination": 0.0666,
        "meta_ra_of_asc_node": 351.1626,
        "meta_arg_of_pericenter": 271.8136,
        "meta_mean_anomaly": 169.0137,
        "meta_ephemeris_type": 0,
        "meta_classification_type": "U",
        "meta_norad_cat_id": 38992,
        "meta_element_set_no": 999,
        "meta_rev_at_epoch": 4789,
        "meta_bstar": 0,
        "meta_mean_motion_dot": 1.39e-06,
        "meta_mean_motion_ddot": 0,
        "tle_line1": "1 38992U 12062B   25339.93167796  .00000139  00000+0  00000+0 0  9993",
        "tle_line2": "2 38992   0.0666 351.1626 0003207 271.8136 169.0137  1.00269482 47892"
      },
      "geometry": {
        "type": "Point",
        "coordinates": [
          -90.84363283131776,
          -0.08939552676910686
        ]
      }
    },
    {
      "type": "Feature",
      "properties": {
        "norad_id": 39020,
        "name": "EUTELSAT 70B",
        "group": "eutelsat",
        "lat": -0.056958907069369846,
        "lon": -41.89698116036493,
        "alt_km": 35781.101323863586,
        "timestamp": "2025-12-06T11:28:10.700595+00:00",
        "meta_object_name": "EUTELSAT 70B",
        "meta_object_id": "2012-069A",
        "meta_epoch": "2025-12-05T21:26:38.561568",
        "meta_mean_motion": 1.00271847,
        "meta_eccentricity": 0.00043125,
        "meta_inclination": 0.0636,
        "meta_ra_of_asc_node": 7.4736,
        "meta_arg_of_pericenter": 236.2191,
        "meta_mean_anomaly": 223.4143,
        "meta_ephemeris_type": 0,
        "meta_classification_type": "U",
        "meta_norad_cat_id": 39020,
        "meta_element_set_no": 999,
        "meta_rev_at_epoch": 4757,
        "meta_bstar": 0,
        "meta_mean_motion_dot": -3.4e-07,
        "meta_mean_motion_ddot": 0,
        "tle_line1": "1 39020U 12069A   25339.89350187 -.00000034  00000+0  00000+0 0  9991",
        "tle_line2": "2 39020   0.0636   7.4736 0004312 236.2191 223.4143  1.00271847 47574"
      },
      "geometry": {
        "type": "Point",
        "coordinates": [
          -41.89698116036493,
          -0.056958907069369846
        ]
      }
    },
    {
      "type": "Feature",
      "properties": {
        "norad_id": 39122,
        "name": "EUTELSAT 117 WEST A",
        "group": "eutelsat",
        "lat": 0.011040047986943136,
        "lon": 130.72471774400339,
        "alt_km": 35794.14248146385,
        "timestamp": "2025-12-06T11:28:10.700607+00:00",
        "meta_object_name": "EUTELSAT 117 WEST A",
        "meta_object_id": "2013-012A",
        "meta_epoch": "2025-12-05T21:42:03.267072",
        "meta_mean_motion": 1.00269631,
        "meta_eccentricity": 0.00031482,
        "meta_inclination": 0.0164,
        "meta_ra_of_asc_node": 321.5177,
        "meta_arg_of_pericenter": 293.2936,
        "meta_mean_anomaly": 28.8634,
        "meta_ephemeris_type": 0,
        "meta_classification_type": "U",
        "meta_norad_cat_id": 39122,
        "meta_element_set_no": 999,
        "meta_rev_at_epoch": 4649,
        "meta_bstar": 0,
        "meta_mean_motion_dot": -3e-08,
        "meta_mean_motion_ddot": 0,
        "tle_line1": "1 39122U 13012A   25339.90420448 -.00000003  00000+0  00000+0 0  9999",
        "tle_line2": "2 39122   0.0164 321.5177 0003148 293.2936  28.8634  1.00269631 46498"
      },
      "geometry": {
        "type": "Point",
        "coordinates": [
          130.72471774400339,
          0.011040047986943136
        ]
      }
    },
    {
      "type": "Feature",
      "properties": {
        "norad_id": 39163,
        "name": "EUTELSAT 7B",
        "group": "eutelsat",
        "lat": -0.08764111021827946,
        "lon": -105.50547645755438,
        "alt_km": 35776.37371445598,
        "timestamp": "2025-12-06T11:28:10.700620+00:00",
        "meta_object_name": "EUTELSAT 7B",
        "meta_object_id": "2013-022A",
        "meta_epoch": "2025-12-05T22:17:22.382592",
        "meta_mean_motion": 1.00270215,
        "meta_eccentricity": 0.00044143,
        "meta_inclination": 0.0685,
        "meta_ra_of_asc_node": 6.4751,
        "meta_arg_of_pericenter": 305.2782,
        "meta_mean_anomaly": 104.5558,
        "meta_ephemeris_type": 0,
        "meta_classification_type": "U",
        "meta_norad_cat_id": 39163,
        "meta_element_set_no": 999,
        "meta_rev_at_epoch": 4601,
        "meta_bstar": 0,
        "meta_mean_motion_dot": 5.7e-07,
        "meta_mean_motion_ddot": 0,
        "tle_line1": "1 39163U 13022A   25339.92873128  .00000057  00000+0  00000+0 0  9992",
        "tle_line2": "2 39163   0.0685   6.4751 0004414 305.2782 104.5558  1.00270215 46013"
      },
      "geometry": {
        "type": "Point",
        "coordinates": [
          -105.50547645755438,
          -0.08764111021827946
        ]
      }
    },
    {
      "type": "Feature",
      "properties": {
        "norad_id": 39612,
        "name": "EXPRESS-AT1",
        "group": "eutelsat",
        "lat": -0.005186719931677998,
        "lon": -56.44541956941886,
        "alt_km": 35787.58908313643,
        "timestamp": "2025-12-06T11:28:10.700632+00:00",
        "meta_object_name": "EXPRESS-AT1",
        "meta_object_id": "2014-010A",
        "meta_epoch": "2025-12-05T21:42:38.692800",
        "meta_mean_motion": 1.00271318,
        "meta_eccentricity": 6.089e-05,
        "meta_inclination": 0.0155,
        "meta_ra_of_asc_node": 295.9635,
        "meta_arg_of_pericenter": 243.441,
        "meta_mean_anomaly": 277.2087,
        "meta_ephemeris_type": 0,
        "meta_classification_type": "U",
        "meta_norad_cat_id": 39612,
        "meta_element_set_no": 999,
        "meta_rev_at_epoch": 4288,
        "meta_bstar": 0,
        "meta_mean_motion_dot": 8.8e-07,
        "meta_mean_motion_ddot": 0,
        "tle_line1": "1 39612U 14010A   25339.90461450  .00000088  00000+0  00000+0 0  9992",
        "tle_line2": "2 39612   0.0155 295.9635 0000608 243.4410 277.2087  1.00271318 42883"
      },
      "geometry": {
        "type": "Point",
        "coordinates": [
          -56.44541956941886,
          -0.005186719931677998
        ]
      }
    },
    {
      "type": "Feature",
      "properties": {
        "norad_id": 39613,
        "name": "EXPRESS-AT2",
        "group": "eutelsat",
        "lat": 0.03400397654673684,
        "lon": 27.413179391053394,
        "alt_km": 35788.213910530336,
        "timestamp": "2025-12-06T11:28:10.700644+00:00",
        "meta_object_name": "EXPRESS-AT2",
        "meta_object_id": "2014-010B",
        "meta_epoch": "2025-12-05T21:12:36.853632",
        "meta_mean_motion": 1.0026964,
        "meta_eccentricity": 0.00014139,
        "meta_inclination": 0.0202,
        "meta_ra_of_asc_node": 342.2731,
        "meta_arg_of_pericenter": 301.1418,
        "meta_mean_anomaly": 249.5228,
        "meta_ephemeris_type": 0,
        "meta_classification_type": "U",
        "meta_norad_cat_id": 39613,
        "meta_element_set_no": 999,
        "meta_rev_at_epoch": 4256,
        "meta_bstar": 0,
        "meta_mean_motion_dot": 0,
        "meta_mean_motion_ddot": 0,
        "tle_line1": "1 39613U 14010B   25339.88375988  .00000000  00000+0  00000+0 0  9994",
        "tle_line2": "2 39613   0.0202 342.2731 0001413 301.1418 249.5228  1.00269640 42564"
      },
      "geometry": {
        "type": "Point",
        "coordinates": [
          27.413179391053394,
          0.03400397654673684
        ]
      }
    }
  ]
}